OBJECT_NAME,OBJECT_ID,EPOCH,MEAN_MOTION,ECCENTRICITY,INCLINATION,RA_OF_ASC_NODE,ARG_OF_PERICENTER,MEAN_ANOMALY,EPHEMERIS_TYPE,CLASSIFICATION_TYPE,NORAD_CAT_ID,ELEMENT_SET_NO,REV_AT_EPOCH,BSTAR,MEAN_MOTION_DOT,MEAN_MOTION_DDOT
TJS-7,2021-077A,2026-07-01T22:34:18.479424,1.00271460,.00034916,0.3189,264.5304,115.8333,138.7443,0,U,49115,999,969,0,-.113E-5,0
CHINASAT 9B,2021-080A,2026-07-02T00:03:24.616800,1.00265713,.00025554,0.0187,40.1703,82.6936,259.4214,0,U,49125,999,1779,0,0,0
SHIJIAN-21 (SJ-21),2021-094A,2026-07-01T23:45:31.545216,1.00264095,.00497401,5.1459,61.0930,168.0178,175.1239,0,U,49330,999,550,0,-.341E-5,0
SES-17,2021-095A,2026-07-01T23:00:53.515008,1.00270138,.00011659,0.0226,38.6038,60.6786,98.8484,0,U,49332,999,1800,0,-.262E-5,0
SYRACUSE 4A,2021-095B,2026-07-01T10:49:15.504960,1.00270065,.00014645,0.0259,38.5237,56.0153,32.7926,0,U,49333,999,1809,0,0,0
QZS-1R (MICHIBIKI-1R),2021-096A,2026-07-01T14:37:01.870752,1.00251244,.0756025,37.4893,79.3703,272.0403,280.4502,0,U,49336,999,1715,0,-.278E-5,0
ZHONGXING-1D,2021-114A,2026-07-01T07:18:38.621088,1.00270455,.00005715,0.0467,124.1238,39.3045,355.7759,0,U,49505,999,1696,0,-.326E-5,0
STPSAT-6,2021-118A,2026-07-01T22:03:09.741600,1.00270748,.00009077,0.3569,85.2719,268.4246,145.3468,0,U,49817,999,1672,0,-.35E-6,0
EXPRESS AMU-7,2021-123A,2026-07-01T06:09:47.287584,1.00272751,.0000443,0.0274,282.7758,125.5414,108.4386,0,U,50001,999,1668,0,-.232E-5,0
EXPRESS AMU-3,2021-123B,2026-07-01T22:28:34.324032,1.00269781,.00004413,0.0224,326.4607,31.6522,1.8869,0,U,50002,999,717,0,0,0
TIANLIAN 2-02,2021-124A,2026-07-01T21:41:05.512992,1.00272724,.00008129,0.8384,85.9125,176.8267,153.4676,0,U,50005,999,1676,0,-.4E-7,0
TURKSAT 5B,2021-126A,2026-07-01T21:55:38.595360,1.00271367,.00025881,0.0692,339.4656,21.4055,289.9928,0,U,50212,999,1644,0,.157E-5,0
INMARSAT 6-F1,2021-128A,2026-07-01T21:16:18.912000,1.00269963,.00002455,0.0162,328.1837,127.6393,226.9442,0,U,50319,999,1640,0,-.161E-5,0
SHIYAN-12 01 (SY-12 01),2021-129A,2026-07-01T18:40:09.968160,1.00045778,.0002967,3.7100,79.7204,294.0464,234.1643,0,U,50321,999,1664,0,.147E-5,0
SHIYAN-12 02 (SY-12 02),2021-129B,2026-07-01T17:55:40.693728,1.00484923,.000312,3.7093,79.7238,58.9175,150.3000,0,U,50322,999,1664,0,-.323E-5,0
TJS-9,2021-135A,2026-07-01T23:14:10.046112,1.00269861,.00037535,0.0136,64.8375,358.4238,342.5179,0,U,50574,999,1657,0,-.288E-5,0
USA 324,2022-006A,2026-06-06T02:06:38.886912,1.00289779,.000284,0.7690,83.2777,165.6787,110.1567,0,U,51280,999,1602,0,-.58E-6,0
GOES 18,2022-021A,2026-07-01T18:30:41.125248,1.00271354,.00005606,0.0058,307.6791,188.3702,284.4375,0,U,51850,999,673,0,.107E-5,0
ZHONGXING-6D,2022-038A,2026-06-30T21:03:57.080736,1.00272406,.00004235,0.0200,80.6644,112.0247,167.3049,0,U,52255,999,1556,0,-.343E-5,0
NILESAT 301,2022-061A,2026-07-01T20:50:25.624032,1.00273042,.00046466,0.0451,7.5070,56.0979,161.9360,0,U,52817,999,1488,0,-.47E-6,0
CMS-02 (GSAT-24),2022-067A,2026-07-01T21:07:43.497984,1.00270743,.00013882,0.0324,246.4789,136.4544,296.9290,0,U,52903,999,1475,0,-.154E-5,0
MEASAT 3D,2022-067B,2026-07-01T21:45:44.523648,1.00271286,.00006379,0.0353,325.3234,103.1213,269.4637,0,U,52904,999,1479,0,-.231E-5,0
SES-22,2022-071A,2026-07-01T15:04:49.124640,1.00272244,.00012902,0.0162,21.3109,72.7329,272.8281,0,U,52933,999,766,0,.115E-5,0
WFOV (USA 332),2022-073A,2026-07-01T18:03:20.060064,1.00275614,.00012468,3.7462,78.3505,238.7743,352.7925,0,U,52940,999,1451,0,-.354E-5,0
TIANLIAN 2-03,2022-078A,2026-07-01T20:55:38.747136,1.00272817,.00010076,0.7079,77.2941,344.3357,182.7577,0,U,53100,999,1469,0,.82E-6,0
SBIRS GEO-6 (USA 336),2022-092A,2026-07-01T21:31:58.886112,1.00271547,.00021611,3.2336,317.7153,140.0964,284.1382,0,U,53355,999,1438,0,-.279E-5,0
EUTELSAT KONNECT VHTS,2022-110A,2026-07-01T08:54:33.242112,1.00270298,.00030561,0.0614,98.4813,342.3407,334.9638,0,U,53765,999,697,0,.27E-6,0
ZHONGXING-1E,2022-112A,2026-07-01T22:58:11.578080,1.00271303,.00001625,0.0386,145.5497,94.2099,106.2093,0,U,53813,999,1399,0,-.139E-5,0
SES-20,2022-123A,2026-07-01T22:05:39.503040,1.00270242,.000216,0.0179,58.8133,36.4509,53.0046,0,U,53960,999,1368,0,-.9E-6,0
SES-21,2022-123B,2026-07-01T17:48:41.524992,1.00268199,.00007998,0.0397,25.6300,71.2003,319.2065,0,U,53961,999,735,0,0,0
GALAXY 33 (G-33),2022-128A,2026-07-01T20:30:12.684672,1.00273141,.00020355,0.0126,32.3198,66.7794,355.3646,0,U,54026,999,1389,0,.89E-6,0
GALAXY 34 (G-34),2022-128B,2026-07-01T16:50:19.472928,1.00275358,.00019581,0.0274,26.9306,83.3094,293.1069,0,U,54027,999,1405,0,0,0
