TJS-7                   
1 49115U 21077A   26182.94049166 -.00000113  00000+0  00000+0 0  9999
2 49115   0.3189 264.5304 0003491 115.8333 138.7443  1.00271460  9693
CHINASAT 9B             
1 49125U 21080A   26183.00236825  .00000000  00000+0  00000+0 0  9996
2 49125   0.0187  40.1703 0002555  82.6936 259.4214  1.00265713 17791
SHIJIAN-21 (SJ-21)      
1 49330U 21094A   26182.98994844 -.00000341  00000+0  00000+0 0  9996
2 49330   5.1459  61.0930 0049740 168.0178 175.1239  1.00264095  5504
SES-17                  
1 49332U 21095A   26182.95895272 -.00000262  00000+0  00000+0 0  9993
2 49332   0.0226  38.6038 0001165  60.6786  98.8484  1.00270138 18009
SYRACUSE 4A             
1 49333U 21095B   26182.45087390  .00000000  00000+0  00000+0 0  9992
2 49333   0.0259  38.5237 0001464  56.0153  32.7926  1.00270065 18091
QZS-1R (MICHIBIKI-1R)   
1 49336U 21096A   26182.60904943 -.00000278  00000+0  00000+0 0  9993
2 49336  37.4893  79.3703 0756025 272.0403 280.4502  1.00251244 17157
ZHONGXING-1D            
1 49505U 21114A   26182.30461367 -.00000326  00000+0  00000+0 0  9991
2 49505   0.0467 124.1238 0000571  39.3045 355.7759  1.00270455 16967
STPSAT-6                
1 49817U 21118A   26182.91886275 -.00000035  00000+0  00000+0 0  9994
2 49817   0.3569  85.2719 0000907 268.4246 145.3468  1.00270748 16720
EXPRESS AMU-7           
1 50001U 21123A   26182.25679731 -.00000232  00000+0  00000+0 0  9990
2 50001   0.0274 282.7758 0000443 125.5414 108.4386  1.00272751 16689
EXPRESS AMU-3           
1 50002U 21123B   26182.93650838  .00000000  00000+0  00000+0 0  9995
2 50002   0.0224 326.4607 0000441  31.6522   1.8869  1.00269781  7174
TIANLIAN 2-02           
1 50005U 21124A   26182.90353603 -.00000004  00000+0  00000+0 0  9991
2 50005   0.8384  85.9125 0000812 176.8267 153.4676  1.00272724 16760
TURKSAT 5B              
1 50212U 21126A   26182.91364115  .00000157  00000+0  00000+0 0  9992
2 50212   0.0692 339.4656 0002588  21.4055 289.9928  1.00271367 16444
INMARSAT 6-F1           
1 50319U 21128A   26182.88633000 -.00000161  00000+0  00000+0 0  9996
2 50319   0.0162 328.1837 0000245 127.6393 226.9442  1.00269963 16409
SHIYAN-12 01 (SY-12 01) 
1 50321U 21129A   26182.77789315  .00000147  00000+0  00000+0 0  9992
2 50321   3.7100  79.7204 0002967 294.0464 234.1643  1.00045778 16648
SHIYAN-12 02 (SY-12 02) 
1 50322U 21129B   26182.74699877 -.00000323  00000+0  00000+0 0  9990
2 50322   3.7093  79.7238 0003120  58.9175 150.3000  1.00484923 16640
TJS-9                   
1 50574U 21135A   26182.96817183 -.00000288  00000+0  00000+0 0  9992
2 50574   0.0136  64.8375 0003753 358.4238 342.5179  1.00269861 16570
USA 324                 
1 51280U 22006A   26157.08795008 -.00000058  00000+0  00000+0 0  9996
2 51280   0.7690  83.2777 0002840 165.6787 110.1567  1.00289779 16021
GOES 18                 
1 51850U 22021A   26182.77130932  .00000107  00000+0  00000+0 0  9993
2 51850   0.0058 307.6791 0000560 188.3702 284.4375  1.00271354  6739
ZHONGXING-6D            
1 52255U 22038A   26181.87774399 -.00000343  00000+0  00000+0 0  9995
2 52255   0.0200  80.6644 0000423 112.0247 167.3049  1.00272406 15566
NILESAT 301             
1 52817U 22061A   26182.86835213 -.00000047  00000+0  00000+0 0  9999
2 52817   0.0451   7.5070 0004646  56.0979 161.9360  1.00273042 14886
CMS-02 (GSAT-24)        
1 52903U 22067A   26182.88036456 -.00000154  00000+0  00000+0 0  9994
2 52903   0.0324 246.4789 0001388 136.4544 296.9290  1.00270743 14755
MEASAT 3D               
1 52904U 22067B   26182.90676532 -.00000231  00000+0  00000+0 0  9999
2 52904   0.0353 325.3234 0000637 103.1213 269.4637  1.00271286 14797
SES-22                  
1 52933U 22071A   26182.62834635  .00000115  00000+0  00000+0 0  9995
2 52933   0.0162  21.3109 0001290  72.7329 272.8281  1.00272244  7662
WFOV (USA 332)          
1 52940U 22073A   26182.75231551 -.00000354  00000+0  00000+0 0  9993
2 52940   3.7462  78.3505 0001246 238.7743 352.7925  1.00275614 14519
TIANLIAN 2-03           
1 53100U 22078A   26182.87197624  .00000082  00000+0  00000+0 0  9999
2 53100   0.7079  77.2941 0001007 344.3357 182.7577  1.00272817 14696
SBIRS GEO-6 (USA 336)   
1 53355U 22092A   26182.89720933 -.00000279  00000+0  00000+0 0  9993
2 53355   3.2336 317.7153 0002161 140.0964 284.1382  1.00271547 14382
EUTELSAT KONNECT VHTS   
1 53765U 22110A   26182.37121808  .00000027  00000+0  00000+0 0  9998
2 53765   0.0614  98.4813 0003056 342.3407 334.9638  1.00270298  6976
ZHONGXING-1E            
1 53813U 22112A   26182.95707845 -.00000139  00000+0  00000+0 0  9994
2 53813   0.0386 145.5497 0000162  94.2099 106.2093  1.00271303 13996
SES-20                  
1 53960U 22123A   26182.92059610 -.00000090  00000+0  00000+0 0  9992
2 53960   0.0179  58.8133 0002160  36.4509  53.0046  1.00270242 13680
SES-21                  
1 53961U 22123B   26182.74214728  .00000000  00000+0  00000+0 0  9996
2 53961   0.0397  25.6300 0000799  71.2003 319.2065  1.00268199  7356
GALAXY 33 (G-33)        
1 54026U 22128A   26182.85431348  .00000089  00000+0  00000+0 0  9992
2 54026   0.0126  32.3198 0002035  66.7794 355.3646  1.00273141 13895
GALAXY 34 (G-34)        
1 54027U 22128B   26182.70161427  .00000000  00000+0  00000+0 0  9998
2 54027   0.0274  26.9306 0001958  83.3094 293.1069  1.00275358 14050
